OBJECT_NAME,OBJECT_ID,EPOCH,MEAN_MOTION,ECCENTRICITY,INCLINATION,RA_OF_ASC_NODE,ARG_OF_PERICENTER,MEAN_ANOMALY,EPHEMERIS_TYPE,CLASSIFICATION_TYPE,NORAD_CAT_ID,ELEMENT_SET_NO,REV_AT_EPOCH,BSTAR,MEAN_MOTION_DOT,MEAN_MOTION_DDOT
SIRION PATHFINDER-2,2018-099B,2026-07-02T10:37:46.392384,15.14680073,.0007319,97.4240,232.1382,240.1372,119.9133,0,U,43759,999,41493,.27406E-3,.5009E-4,0
CORVUS BC4,2018-099K,2026-07-01T01:56:38.588352,15.12603535,.00069308,97.4054,224.6547,321.1885,38.8848,0,U,43767,999,41450,.29796216E-3,.5142E-4,0
M2 PATHFINDER,2020-037E,2026-07-02T11:23:45.045024,15.04746846,.0012859,97.8146,14.8778,100.9984,259.2689,0,U,45727,999,32779,.25081E-3,.3477E-4,0
NETSAT-4,2020-068U,2026-07-02T14:42:43.053120,15.44380953,.0003447,97.8600,193.0981,250.0471,110.0405,0,U,46504,999,31815,.39116E-3,.17984E-3,0
NETSAT-3,2020-068V,2026-07-02T18:15:23.558112,15.43224400,.0002892,97.8650,191.4550,277.6321,82.4597,0,U,46505,999,31808,.45631E-3,.20196E-3,0
NETSAT-1,2020-068W,2026-07-02T06:15:52.813152,15.34987582,.0003139,97.8745,185.0671,337.8079,22.3027,0,U,46506,999,31761,.40391E-3,.13631E-3,0
NETSAT-2,2020-068X,2026-07-02T12:02:22.294752,15.46666067,.0001408,97.8610,192.9295,305.0329,55.0787,0,U,46507,999,31810,.48478E-3,.24138E-3,0
GREENCUBE (IO-117),2022-080E,2026-06-30T17:23:31.202880,6.42583253,.00089588,70.1437,293.5372,286.6703,73.2973,0,U,53109,999,9293,0,-.3E-7,0
SITRO-AIS 5 (KATYS),2023-091L,2026-07-02T18:29:05.485632,15.29818039,.0011934,97.5050,247.8206,54.5453,305.6899,0,U,57176,999,16672,.44869E-3,.12915E-3,0
SITRO-AIS 6 (CHIRKIN),2023-091AC,2026-07-02T17:16:31.895040,15.26233454,.0012391,97.5058,246.8059,58.0511,302.1930,0,U,57192,999,16665,.42368E-3,.10925E-3,0
SITRO-AIS 8 (ANOKHIN),2023-091AD,2026-07-02T18:13:56.836704,15.32563667,.0010788,97.5047,249.4627,50.6810,309.5386,0,U,57193,999,16683,.48157E-3,.15102E-3,0
SITRO-AIS 7 (FARTUSHNIY),2023-091AE,2026-07-02T17:25:41.011968,15.25914675,.0012309,97.5053,246.6290,59.0210,301.2236,0,U,57194,999,16664,.42792E-3,.1093E-3,0
SITRO-AIS 10 (BURDAEV),2023-091AK,2026-07-02T17:23:56.326272,15.39203696,.0006074,97.5074,254.6438,30.4312,329.7284,0,U,57199,999,16715,.55578E-3,.21565E-3,0
SITRO-AIS 9 (SHCHUKIN),2023-091AM,2026-07-02T18:09:10.543392,15.38700977,.000634,97.5070,254.3937,30.3218,329.8392,0,U,57201,999,16714,.5543E-3,.21157E-3,0
SITRO-AIS 12 (SMIRENNIY),2023-091AQ,2026-07-02T17:51:24.193728,15.38995781,.0005824,97.5084,254.8580,24.3807,335.7712,0,U,57204,999,16716,.57467E-3,.22151E-3,0
SITRO-AIS 11 (SHEFFER),2023-091AU,2026-07-02T18:04:28.399008,15.39428791,.0005759,97.5083,255.1236,24.3606,335.7911,0,U,57208,999,16718,.57032E-3,.22296E-3,0
SITRO-AIS 25,2024-039R,2026-07-02T18:51:17.967168,14.93588780,.0142273,95.3900,245.8116,273.5027,84.9936,0,U,59066,999,12705,.2904E-3,.3703E-4,0
SITRO-AIS 26,2024-039S,2026-07-02T18:56:21.302880,14.93382652,.0142598,95.3899,245.7085,274.1028,84.3911,0,U,59067,999,12704,.28069E-3,.356E-4,0
SITRO-AIS 27,2024-039T,2026-07-02T18:07:11.231040,14.93802994,.0141772,95.3901,245.9644,272.7838,85.7169,0,U,59068,999,12706,.2023E-3,.2579E-4,0
SITRO-AIS 28,2024-039U,2026-07-02T19:10:40.015200,14.93839319,.0141527,95.3904,246.0426,272.4658,86.0371,0,U,59071,999,12707,.26167E-3,.3348E-4,0
GRBBETA,2024-128C,2026-07-02T16:24:06.013152,15.06735008,.0038648,61.9887,161.8933,137.9860,222.4208,0,U,60237,999,10860,.29759E-3,.4303E-4,0
OOV-CUBE (TUBSAT-30),2024-128F,2026-07-02T16:36:17.261280,15.02831807,.0042719,61.9926,171.5059,137.2336,223.2093,0,U,60240,999,10844,.17578E-3,.2197E-4,0
ROBUSTA-3A (MEDITERRANEE),2024-128J,2026-07-02T09:56:22.424352,15.11831241,.0039659,61.9853,154.3896,131.0687,229.3846,0,U,60243,999,10872,.45227E-3,.7696E-4,0
LASARSAT,2024-247Q,2026-07-02T16:03:49.146048,15.47293079,.0006585,44.9722,175.1548,71.8885,288.2722,0,U,62391,999,8571,.63607E-3,.32981E-3,0
CROCUBE,2024-247T,2026-07-02T06:15:31.098240,15.49290769,.0006479,44.9691,174.5342,75.1846,284.9762,0,U,62394,999,8568,.78103E-3,.43599E-3,0
FORESAIL-1 PRIME,2025-276DS,2026-07-02T16:15:08.823744,15.18841293,.0003672,97.4196,256.6654,71.4319,288.7315,0,U,66778,999,3275,.28756E-3,.5924E-4,0
KNACKSAT-2,1998-067XZ,2026-07-02T06:29:25.454400,15.61304103,.0008371,51.6255,218.5343,281.3126,78.6927,0,U,67683,999,2263,.55339E-3,.47788E-3,0
